[{"OBJECT_NAME":"STARLINK-3338","OBJECT_ID":"2022-001K","EPOCH":"2026-03-09T13:42:29.975328","MEAN_MOTION":15.08839183,"ECCENTRICITY":0.0001102,"INCLINATION":53.2163,"RA_OF_ASC_NODE":159.7572,"ARG_OF_PERICENTER":100.0964,"MEAN_ANOMALY":260.0153,"EPHEMERIS_TYPE":0,"CLASSIFICATION_TYPE":"U","NORAD_CAT_ID":50812,"ELEMENT_SET_NO":999,"REV_AT_EPOCH":23052,"BSTAR":-3.5802e-5,"MEAN_MOTION_DOT":-8.58e-6,"MEAN_MOTION_DDOT":0},{"OBJECT_NAME":"POSAT-2","OBJECT_ID":"2025-009DR","EPOCH":"2026-03-09T23:15:20.314368","MEAN_MOTION":15.10404492,"ECCENTRICITY":0.00077103,"INCLINATION":97.4906,"RA_OF_ASC_NODE":146.0095,"ARG_OF_PERICENTER":126.4226,"MEAN_ANOMALY":233.7715,"EPHEMERIS_TYPE":0,"CLASSIFICATION_TYPE":"U","NORAD_CAT_ID":63488,"ELEMENT_SET_NO":999,"REV_AT_EPOCH":5165,"BSTAR":0.0010942248,"MEAN_MOTION_DOT":0.00017957,"MEAN_MOTION_DDOT":0}]
